{
"type": "FeatureCollection",
"name": "reservoirs_proposed",
"crs": { "type": "name", "properties": { "name": "urn:ogc:def:crs:OGC:1.3:CRS84" } },
"xy_coordinate_resolution": 1e-06,
"features": [
{ "type": "Feature", "properties": { "Name": "Proposed North Village Reservoir", "Acres": 45.183404555899997 }, "geometry": { "type": "Polygon", "coordinates": [ [ [ -106.969834, 38.913409 ], [ -106.96963, 38.913431 ], [ -106.969472, 38.913504 ], [ -106.969358, 38.913524 ], [ -106.969198, 38.913491 ], [ -106.969057, 38.913351 ], [ -106.968962, 38.91321 ], [ -106.968846, 38.913159 ], [ -106.968597, 38.913199 ], [ -106.968466, 38.913432 ], [ -106.968401, 38.91354 ], [ -106.968218, 38.913543 ], [ -106.968036, 38.913547 ], [ -106.967789, 38.913711 ], [ -106.96759, 38.91391 ], [ -106.967501, 38.914018 ], [ -106.967344, 38.914092 ], [ -106.967275, 38.914093 ], [ -106.967249, 38.913969 ], [ -106.967198, 38.913774 ], [ -106.967125, 38.913615 ], [ -106.966987, 38.913564 ], [ -106.966737, 38.913586 ], [ -106.966554, 38.913589 ], [ -106.966415, 38.913485 ], [ -106.966232, 38.913488 ], [ -106.966027, 38.913491 ], [ -106.965799, 38.913495 ], [ -106.965592, 38.913427 ], [ -106.965588, 38.913303 ], [ -106.965654, 38.913195 ], [ -106.965605, 38.913071 ], [ -106.965534, 38.913001 ], [ -106.965215, 38.913007 ], [ -106.964874, 38.913048 ], [ -106.964214, 38.913095 ], [ -106.963782, 38.913138 ], [ -106.963326, 38.913181 ], [ -106.962963, 38.91324 ], [ -106.962785, 38.913386 ], [ -106.962587, 38.913674 ], [ -106.962411, 38.91389 ], [ -106.962255, 38.914036 ], [ -106.962164, 38.914037 ], [ -106.961982, 38.914058 ], [ -106.962001, 38.913933 ], [ -106.962156, 38.91377 ], [ -106.962198, 38.913609 ], [ -106.962265, 38.913555 ], [ -106.962462, 38.913284 ], [ -106.962684, 38.913049 ], [ -106.962954, 38.91292 ], [ -106.96325, 38.912897 ], [ -106.963522, 38.912839 ], [ -106.963974, 38.912689 ], [ -106.964381, 38.91254 ], [ -106.964739, 38.912285 ], [ -106.965057, 38.912226 ], [ -106.965511, 38.912165 ], [ -106.965807, 38.912124 ], [ -106.965963, 38.912015 ], [ -106.966005, 38.911872 ], [ -106.965932, 38.911713 ], [ -106.96586, 38.911572 ], [ -106.965698, 38.911503 ], [ -106.965696, 38.911414 ], [ -106.965898, 38.911304 ], [ -106.966011, 38.911266 ], [ -106.965985, 38.91116 ], [ -106.965846, 38.911056 ], [ -106.965362, 38.910886 ], [ -106.965015, 38.910713 ], [ -106.964761, 38.910611 ], [ -106.964828, 38.910556 ], [ -106.965147, 38.910533 ], [ -106.966014, 38.910536 ], [ -106.966355, 38.910495 ], [ -106.966693, 38.910347 ], [ -106.967213, 38.910178 ], [ -106.967438, 38.910085 ], [ -106.96764, 38.909957 ], [ -106.967523, 38.909835 ], [ -106.967521, 38.909781 ], [ -106.967679, 38.909707 ], [ -106.967813, 38.909598 ], [ -106.967855, 38.909473 ], [ -106.967827, 38.909278 ], [ -106.967755, 38.909172 ], [ -106.967889, 38.909063 ], [ -106.96798, 38.909043 ], [ -106.967958, 38.90889 ], [ -106.967932, 38.908783 ], [ -106.967999, 38.908711 ], [ -106.968182, 38.908744 ], [ -106.968366, 38.908794 ], [ -106.968619, 38.908879 ], [ -106.968688, 38.908877 ], [ -106.968916, 38.908874 ], [ -106.969561, 38.909355 ], [ -106.969603, 38.910846 ], [ -106.969765, 38.911105 ], [ -106.96998, 38.911424 ], [ -106.970113, 38.911543 ], [ -106.970375, 38.911699 ], [ -106.970592, 38.912079 ], [ -106.970655, 38.912461 ], [ -106.970634, 38.912642 ], [ -106.970638, 38.912804 ], [ -106.970796, 38.912902 ], [ -106.970826, 38.913042 ], [ -106.970697, 38.913065 ], [ -106.970516, 38.913068 ], [ -106.970312, 38.913132 ], [ -106.97016, 38.913255 ], [ -106.970015, 38.913335 ], [ -106.969834, 38.913409 ] ] ] } },
{ "type": "Feature", "properties": { "Name": "Proposed Crescent Lake Reservoir", "Acres": 5.3731784622200003 }, "geometry": { "type": "Polygon", "coordinates": [ [ [ -106.96395, 38.912535 ], [ -106.963958, 38.912549 ], [ -106.963976, 38.912584 ], [ -106.96399, 38.912611 ], [ -106.964003, 38.912637 ], [ -106.964046, 38.912728 ], [ -106.964056, 38.912752 ], [ -106.964083, 38.912818 ], [ -106.964097, 38.912853 ], [ -106.964107, 38.912881 ], [ -106.964128, 38.912942 ], [ -106.964139, 38.912976 ], [ -106.96415, 38.913011 ], [ -106.964161, 38.91305 ], [ -106.964172, 38.913091 ], [ -106.964182, 38.913132 ], [ -106.964191, 38.913173 ], [ -106.964199, 38.913214 ], [ -106.964207, 38.913254 ], [ -106.964213, 38.913294 ], [ -106.964218, 38.913327 ], [ -106.964207, 38.913328 ], [ -106.964167, 38.91333 ], [ -106.964131, 38.913332 ], [ -106.96411, 38.913333 ], [ -106.964075, 38.913335 ], [ -106.964045, 38.913338 ], [ -106.964008, 38.913342 ], [ -106.963982, 38.913345 ], [ -106.96396, 38.913346 ], [ -106.963907, 38.91335 ], [ -106.963889, 38.913352 ], [ -106.963874, 38.913353 ], [ -106.963807, 38.913358 ], [ -106.963797, 38.913359 ], [ -106.963789, 38.91336 ], [ -106.963706, 38.913366 ], [ -106.963704, 38.913366 ], [ -106.963703, 38.913366 ], [ -106.963687, 38.913368 ], [ -106.96362, 38.913376 ], [ -106.963612, 38.913377 ], [ -106.963601, 38.913378 ], [ -106.963539, 38.913388 ], [ -106.963519, 38.913391 ], [ -106.963492, 38.913395 ], [ -106.963459, 38.913401 ], [ -106.963426, 38.913406 ], [ -106.96338, 38.913414 ], [ -106.96338, 38.913414 ], [ -106.963334, 38.913423 ], [ -106.963304, 38.91343 ], [ -106.963263, 38.913439 ], [ -106.963241, 38.913444 ], [ -106.963228, 38.913447 ], [ -106.963184, 38.91346 ], [ -106.963157, 38.913469 ], [ -106.963149, 38.913471 ], [ -106.96313, 38.91348 ], [ -106.963091, 38.913496 ], [ -106.963056, 38.913511 ], [ -106.96303, 38.913527 ], [ -106.962991, 38.913553 ], [ -106.962975, 38.913565 ], [ -106.962964, 38.913574 ], [ -106.962928, 38.91361 ], [ -106.962893, 38.913646 ], [ -106.962883, 38.913658 ], [ -106.962871, 38.913672 ], [ -106.962842, 38.91371 ], [ -106.962822, 38.913738 ], [ -106.962807, 38.913767 ], [ -106.962778, 38.913819 ], [ -106.962774, 38.913827 ], [ -106.962772, 38.913831 ], [ -106.962767, 38.913842 ], [ -106.962745, 38.91389 ], [ -106.962729, 38.913923 ], [ -106.96272, 38.913957 ], [ -106.962709, 38.913993 ], [ -106.962702, 38.914016 ], [ -106.9627, 38.91403 ], [ -106.962686, 38.914108 ], [ -106.962686, 38.914109 ], [ -106.962669, 38.914184 ], [ -106.962662, 38.914201 ], [ -106.962649, 38.914238 ], [ -106.962645, 38.914253 ], [ -106.962626, 38.914294 ], [ -106.962616, 38.914316 ], [ -106.962593, 38.914352 ], [ -106.962579, 38.914372 ], [ -106.962564, 38.914386 ], [ -106.962534, 38.91442 ], [ -106.962501, 38.914445 ], [ -106.96248, 38.914459 ], [ -106.962443, 38.914479 ], [ -106.962421, 38.914492 ], [ -106.962408, 38.914497 ], [ -106.962389, 38.914498 ], [ -106.962337, 38.914501 ], [ -106.962315, 38.914502 ], [ -106.962292, 38.914503 ], [ -106.962249, 38.914505 ], [ -106.962223, 38.914506 ], [ -106.9622, 38.914502 ], [ -106.962143, 38.914491 ], [ -106.96213, 38.914489 ], [ -106.962124, 38.914486 ], [ -106.96211, 38.914479 ], [ -106.962058, 38.914458 ], [ -106.962038, 38.914451 ], [ -106.961995, 38.914429 ], [ -106.961981, 38.914422 ], [ -106.961945, 38.914404 ], [ -106.961934, 38.914397 ], [ -106.96192, 38.914386 ], [ -106.96188, 38.914359 ], [ -106.961852, 38.914338 ], [ -106.96183, 38.914316 ], [ -106.961811, 38.914294 ], [ -106.961785, 38.914269 ], [ -106.96176, 38.914246 ], [ -106.961737, 38.914224 ], [ -106.961709, 38.914201 ], [ -106.961684, 38.914185 ], [ -106.961667, 38.914176 ], [ -106.961623, 38.914153 ], [ -106.961615, 38.914149 ], [ -106.961575, 38.914128 ], [ -106.961563, 38.91412 ], [ -106.961545, 38.914109 ], [ -106.961505, 38.914086 ], [ -106.961482, 38.914076 ], [ -106.961439, 38.914059 ], [ -106.961428, 38.914055 ], [ -106.96139, 38.914039 ], [ -106.961373, 38.914032 ], [ -106.961333, 38.914016 ], [ -106.961358, 38.913985 ], [ -106.96139, 38.913956 ], [ -106.961407, 38.913941 ], [ -106.961429, 38.913923 ], [ -106.961473, 38.913915 ], [ -106.961482, 38.913913 ], [ -106.961494, 38.913911 ], [ -106.961553, 38.913901 ], [ -106.961575, 38.913898 ], [ -106.961607, 38.913891 ], [ -106.96163, 38.913886 ], [ -106.961667, 38.913878 ], [ -106.961702, 38.913866 ], [ -106.961743, 38.913848 ], [ -106.96176, 38.913841 ], [ -106.961767, 38.913838 ], [ -106.961779, 38.913831 ], [ -106.961822, 38.913801 ], [ -106.961852, 38.913775 ], [ -106.961873, 38.913759 ], [ -106.961889, 38.913738 ], [ -106.961909, 38.913703 ], [ -106.961933, 38.913658 ], [ -106.961939, 38.913646 ], [ -106.96194, 38.913641 ], [ -106.961945, 38.913621 ], [ -106.961959, 38.913567 ], [ -106.961962, 38.913553 ], [ -106.96197, 38.913528 ], [ -106.961977, 38.913492 ], [ -106.96199, 38.91346 ], [ -106.962007, 38.91343 ], [ -106.962038, 38.9134 ], [ -106.962053, 38.913383 ], [ -106.962076, 38.913368 ], [ -106.962111, 38.913349 ], [ -106.96213, 38.913342 ], [ -106.962173, 38.913318 ], [ -106.962189, 38.913309 ], [ -106.962223, 38.913291 ], [ -106.962232, 38.913285 ], [ -106.962244, 38.913275 ], [ -106.962289, 38.913249 ], [ -106.962315, 38.913234 ], [ -106.962345, 38.913212 ], [ -106.962381, 38.913183 ], [ -106.962395, 38.91317 ], [ -106.962408, 38.913158 ], [ -106.962442, 38.913124 ], [ -106.962474, 38.91309 ], [ -106.962484, 38.913073 ], [ -106.962501, 38.91305 ], [ -106.962524, 38.913021 ], [ -106.962545, 38.912998 ], [ -106.962567, 38.912971 ], [ -106.962593, 38.912944 ], [ -106.962613, 38.912924 ], [ -106.962635, 38.912905 ], [ -106.962662, 38.912882 ], [ -106.962686, 38.912864 ], [ -106.962715, 38.912842 ], [ -106.962761, 38.912812 ], [ -106.962772, 38.912806 ], [ -106.962778, 38.912803 ], [ -106.962794, 38.912797 ], [ -106.962836, 38.912778 ], [ -106.962871, 38.912765 ], [ -106.962906, 38.912754 ], [ -106.962936, 38.912747 ], [ -106.962964, 38.912739 ], [ -106.96298, 38.912736 ], [ -106.963051, 38.912725 ], [ -106.963056, 38.912724 ], [ -106.96306, 38.912724 ], [ -106.963115, 38.91272 ], [ -106.963146, 38.912717 ], [ -106.963149, 38.912717 ], [ -106.963152, 38.912717 ], [ -106.963233, 38.912711 ], [ -106.963241, 38.912711 ], [ -106.963251, 38.91271 ], [ -106.963317, 38.912703 ], [ -106.963334, 38.912702 ], [ -106.963355, 38.912698 ], [ -106.963397, 38.912691 ], [ -106.963426, 38.912686 ], [ -106.963472, 38.912675 ], [ -106.963473, 38.912674 ], [ -106.963519, 38.912664 ], [ -106.963546, 38.912654 ], [ -106.9636, 38.912639 ], [ -106.963612, 38.912635 ], [ -106.963618, 38.912633 ], [ -106.963639, 38.912627 ], [ -106.963688, 38.91261 ], [ -106.963704, 38.912607 ], [ -106.963732, 38.912599 ], [ -106.963761, 38.912591 ], [ -106.963797, 38.912582 ], [ -106.963834, 38.912572 ], [ -106.963861, 38.912563 ], [ -106.963889, 38.912555 ], [ -106.963905, 38.91255 ], [ -106.96395, 38.912535 ] ] ] } }
]
}
